OBJECT_NAME,OBJECT_ID,EPOCH,MEAN_MOTION,ECCENTRICITY,INCLINATION,RA_OF_ASC_NODE,ARG_OF_PERICENTER,MEAN_ANOMALY,EPHEMERIS_TYPE,CLASSIFICATION_TYPE,NORAD_CAT_ID,ELEMENT_SET_NO,REV_AT_EPOCH,BSTAR,MEAN_MOTION_DOT,MEAN_MOTION_DDOT
QB50P1,2014-033R,2026-07-22T19:10:54.290208,15.18749882,.00105654,98.0975,217.4558,102.9257,257.3156,0,U,40025,999,65843,.41699772E-3,.8602E-4,0
DTUSAT-2,2014-033W,2026-07-23T10:14:12.761376,15.15429714,.0009637,98.0884,204.4689,108.4474,251.7805,0,U,40030,999,65817,.37178E-3,.6961E-4,0
QB50P2,2014-033Y,2026-07-23T19:31:14.736000,15.15594889,.0008935,98.0772,203.9885,59.9855,300.2261,0,U,40032,999,65821,.39859E-3,.7503E-4,0
PERSEUS-M1,2014-033AF,2026-07-23T19:57:01.190592,14.95732727,.0011627,97.9652,149.5700,168.6550,191.4935,0,U,40039,999,65611,.8811E-4,.922E-5,0
POLYITAN-1,2014-033AJ,2026-07-23T07:45:34.517088,15.34444208,.0007065,98.0940,234.0351,39.5011,320.6744,0,U,40042,999,65913,.56162E-3,.18684E-3,0
TIGRISAT,2014-033AK,2026-07-23T19:59:38.804064,14.85268929,.0047998,97.7875,354.0167,315.5336,44.2030,0,U,40043,999,65106,.17067E-3,.1439E-4,0
AISAT,2014-034B,2026-07-23T16:43:11.197632,15.09458372,.0011191,98.2358,119.7775,97.6052,262.6446,0,U,40054,999,65271,.68287E-3,.10884E-3,0
CANX-4,2014-034C,2026-07-23T05:21:20.124576,14.81321100,.0011389,98.3072,80.8513,253.9790,106.0167,0,U,40055,999,64986,.10082E-3,.73E-5,0
CANX-5,2014-034D,2026-07-23T11:47:32.685792,14.81338876,.0011405,98.3074,81.1750,253.2971,106.6989,0,U,40056,999,64071,.10106E-3,.732E-5,0
VELOX-I,2014-034E,2026-07-23T20:41:46.455072,14.98172386,.0007507,98.2488,111.9478,142.4262,217.7485,0,U,40057,999,65209,.47519E-3,.5575E-4,0
GONETS-M 10,2014-036C,2026-07-23T20:32:28.455360,12.42946155,.0022779,82.5109,284.9006,64.4520,295.8911,0,U,40063,999,54680,-.63694E-3,-.78E-6,0
METEOR-M 2,2014-037A,2026-07-23T21:20:15.202176,14.21471365,.0004679,98.5143,179.3323,297.2364,62.8337,0,U,40069,999,62453,.47956E-4,.63E-6,0
DX1,2014-037C,2026-07-23T21:25:35.746176,14.90078415,.0007786,98.3889,168.8291,143.5806,216.5941,0,U,40071,999,65157,.9336E-4,.839E-5,0
UKUBE-1,2014-037F,2026-07-22T00:03:56.437056,15.14023415,.00031348,98.4254,209.9476,76.9955,283.1624,0,U,40074,999,65382,.4640491E-3,.8356E-4,0
GAOFEN-2,2014-049A,2026-07-23T20:45:46.712736,14.80935318,.0008681,98.0089,269.0335,110.7983,249.4160,0,U,40118,999,64466,.93049E-4,.667E-5,0
BRITE-PL2 (HEWELIUSZ),2014-049B,2026-07-23T17:24:01.816128,14.94707430,.0013547,97.9123,317.0145,354.4816,5.6253,0,U,40119,999,64690,.17545E-3,.1847E-4,0
CBERS 4,2014-079A,2026-07-23T20:09:11.761344,14.35517482,.0000551,98.3513,260.5172,80.3548,279.7700,0,U,40336,999,60921,.27527E-4,.37E-6,0
SMAP,2015-003A,2026-07-23T19:08:33.998208,14.63394623,.0001638,98.1288,211.3756,92.1878,267.9511,0,U,40376,999,61297,.81589E-4,.375E-5,0
GONETS-M 11,2015-020A,2026-07-23T21:01:46.973568,12.42879090,.0015237,82.4878,8.1256,282.8970,77.0408,0,U,40552,999,51329,.66137E-3,.101E-5,0
GONETS-M 12,2015-020B,2026-07-23T20:23:02.897376,12.42892270,.001422,82.4911,9.2757,266.6674,93.2779,0,U,40553,999,51328,.3685E-3,.61E-6,0
GONETS-M 13,2015-020C,2026-07-23T19:45:44.405568,12.42872048,.0012883,82.4874,7.8964,250.3222,109.6468,0,U,40554,999,51325,.76862E-4,.2E-6,0
DMC3-FM1,2015-032A,2026-07-23T20:12:48.527712,14.85774160,.0004141,97.6421,68.5716,303.0002,57.0816,0,U,40715,999,59535,.10057E-3,.823E-5,0
DMC3-FM2,2015-032B,2026-07-23T20:44:20.335200,14.85783032,.0004732,97.6475,70.1913,310.0113,50.0687,0,U,40716,999,59535,.12632E-3,.1047E-4,0
DMC3-FM3,2015-032C,2026-07-23T21:18:18.841248,14.85768894,.000403,97.6525,71.9901,311.8605,48.2266,0,U,40717,999,59536,.26017E-4,.175E-5,0
CARBONITE 1 (CBNT-1),2015-032D,2026-07-23T19:18:05.255136,14.83690345,.001466,97.6535,21.3435,168.2561,191.8998,0,U,40718,999,59477,.27954E-3,.2263E-4,0
DEORBITSAIL,2015-032E,2026-07-23T11:32:37.962816,15.04317633,.0014051,97.5873,60.6266,109.9935,250.2806,0,U,40719,999,59670,.60411E-3,.8379E-4,0
LILACSAT-2,2015-049K,2026-07-23T21:26:12.814368,15.52609279,.0008639,97.4631,243.1525,116.2559,243.9583,0,U,40908,999,60144,.34572E-3,.21214E-3,0
COSMOS 2507 (RODNIK-S 13),2015-050A,2026-07-23T20:34:20.814240,12.42927395,.0008876,82.4905,56.8340,271.9081,88.0982,0,U,40920,999,49141,-.22633E-3,-.22E-6,0
COSMOS 2508 (RODNIK-S 14),2015-050B,2026-07-23T21:25:58.883232,12.42914973,.0013596,82.4858,55.3026,306.9009,53.0824,0,U,40921,999,49140,-.53906E-3,-.65E-6,0
COSMOS 2509 (RODNIK-S 15),2015-050C,2026-07-23T20:00:38.801952,12.42884386,.0014222,82.4866,55.4458,325.0062,35.0082,0,U,40922,999,49143,-.63914E-3,-.79E-6,0
