{"epoch":1784848540,"count":18314,"objects":[{"id":"40025","name":"QB50P1","type":"PAYLOAD","l1":"1 40025U 14033R   26203.79923947  .00008602  00000-0  41700-3 0  9996","l2":"2 40025  98.0975 217.4558 0010565 102.9257 257.3156 15.18749882658434"},{"id":"40030","name":"DTUSAT 2","type":"PAYLOAD","l1":"1 40030U 14033W   26204.42653659  .00006961  00000-0  37178-3 0  9993","l2":"2 40030  98.0884 204.4689 0009637 108.4474 251.7805 15.15429714658176"},{"id":"40032","name":"QB50P2","type":"PAYLOAD","l1":"1 40032U 14033Y   26204.81336500  .00007503  00000-0  39859-3 0  9992","l2":"2 40032  98.0772 203.9885 0008935  59.9855 300.2261 15.15594889658216"},{"id":"40039","name":"PERSEUS M1","type":"PAYLOAD","l1":"1 40039U 14033AF  26204.83126378  .00000922  00000-0  88110-4 0  9994","l2":"2 40039  97.9652 149.5700 0011627 168.6550 191.4935 14.95732727656118"},{"id":"40042","name":"POLYITAN 1","type":"PAYLOAD","l1":"1 40042U 14033AJ  26204.32331617  .00018684  00000-0  56162-3 0  9991","l2":"2 40042  98.0940 234.0351 0007065  39.5011 320.6744 15.34444208659132"},{"id":"40043","name":"TIGRISAT","type":"PAYLOAD","l1":"1 40043U 14033AK  26204.83308801  .00001439  00000-0  17067-3 0  9998","l2":"2 40043  97.7875 354.0167 0047998 315.5336  44.2030 14.85268929651060"},{"id":"40054","name":"AISAT","type":"PAYLOAD","l1":"1 40054U 14034B   26204.69665738  .00010884  00000-0  68287-3 0  9994","l2":"2 40054  98.2358 119.7775 0011191  97.6052 262.6446 15.09458372652714"},{"id":"40055","name":"CANX-4","type":"PAYLOAD","l1":"1 40055U 14034C   26204.22314959  .00000730  00000-0  10082-3 0  9999","l2":"2 40055  98.3072  80.8513 0011389 253.9790 106.0167 14.81321100649862"},{"id":"40056","name":"CANX-5","type":"PAYLOAD","l1":"1 40056U 14034D   26204.49135053  .00000732  00000-0  10106-3 0  9994","l2":"2 40056  98.3074  81.1750 0011405 253.2971 106.6989 14.81338876640716"},{"id":"40057","name":"VELOX 1","type":"PAYLOAD","l1":"1 40057U 14034E   26204.86234323  .00005575  00000-0  47519-3 0  9994","l2":"2 40057  98.2488 111.9478 0007507 142.4262 217.7485 14.98172386652093"},{"id":"40063","name":"GONETS M 10 (M20)","type":"PAYLOAD","l1":"1 40063U 14036C   26204.85588490 -.00000078  00000-0 -63694-3 0  9996","l2":"2 40063  82.5109 284.9006 0022779  64.4520 295.8911 12.42946155546804"},{"id":"40069","name":"METEOR M2","type":"PAYLOAD","l1":"1 40069U 14037A   26204.88906484  .00000063  00000-0  47956-4 0  9999","l2":"2 40069  98.5143 179.3323 0004679 297.2364  62.8337 14.21471365624531"},{"id":"40071","name":"DX 1","type":"PAYLOAD","l1":"1 40071U 14037C   26204.89277484  .00000839  00000-0  93360-4 0  9995","l2":"2 40071  98.3889 168.8291 0007786 143.5806 216.5941 14.90078415651570"},{"id":"40074","name":"UKUBE 1","type":"PAYLOAD","l1":"1 40074U 14037F   26203.00273654  .00008356  00000-0  46405-3 0  9994","l2":"2 40074  98.4254 209.9476 0003135  76.9955 283.1624 15.14023415653825"},{"id":"40118","name":"GAOFEN 2","type":"PAYLOAD","l1":"1 40118U 14049A   26204.86512399  .00000667  00000-0  93049-4 0  9997","l2":"2 40118  98.0089 269.0335 0008681 110.7983 249.4160 14.80935318644664"},{"id":"40119","name":"BRITE-PL 2","type":"PAYLOAD","l1":"1 40119U 14049B   26204.72502102  .00001847  00000-0  17545-3 0  9991","l2":"2 40119  97.9123 317.0145 0013547 354.4816   5.6253 14.94707430646905"},{"id":"40336","name":"CBERS-4","type":"PAYLOAD","l1":"1 40336U 14079A   26204.83971946  .00000037  00000-0  27527-4 0  9995","l2":"2 40336  98.3513 260.5172 0000551  80.3548 279.7700 14.35517482609219"},{"id":"40376","name":"SMAP","type":"PAYLOAD","l1":"1 40376U 15003A   26204.79761572  .00000375  00000-0  81589-4 0  9997","l2":"2 40376  98.1288 211.3756 0001638  92.1878 267.9511 14.63394623612973"},{"id":"40552","name":"GONETS M 11 (M21)","type":"PAYLOAD","l1":"1 40552U 15020A   26204.87623812  .00000101  00000-0  66137-3 0  9993","l2":"2 40552  82.4878   8.1256 0015237 282.8970  77.0408 12.42879090513299"},{"id":"40553","name":"GONETS M 12 (M22)","type":"PAYLOAD","l1":"1 40553U 15020B   26204.84933909  .00000061  00000-0  36850-3 0  9996","l2":"2 40553  82.4911   9.2757 0014220 266.6674  93.2779 12.42892270513283"},{"id":"40554","name":"GONETS M 13 (M23)","type":"PAYLOAD","l1":"1 40554U 15020C   26204.82343062  .00000020  00000-0  76862-4 0  9993","l2":"2 40554  82.4874   7.8964 0012883 250.3222 109.6468 12.42872048513253"},{"id":"40715","name":"DMC 3-FM1","type":"PAYLOAD","l1":"1 40715U 15032A   26204.84222833  .00000823  00000-0  10057-3 0  9993","l2":"2 40715  97.6421  68.5716 0004141 303.0002  57.0816 14.85774160595356"},{"id":"40716","name":"DMC 3-FM2","type":"PAYLOAD","l1":"1 40716U 15032B   26204.86412425  .00001047  00000-0  12632-3 0  9994","l2":"2 40716  97.6475  70.1913 0004732 310.0113  50.0687 14.85783032595358"},{"id":"40717","name":"DMC 3-FM3","type":"PAYLOAD","l1":"1 40717U 15032C   26204.88771807  .00000175  00000-0  26017-4 0  9993","l2":"2 40717  97.6525  71.9901 0004030 311.8605  48.2266 14.85768894595369"},{"id":"40718","name":"CARBONITE 1","type":"PAYLOAD","l1":"1 40718U 15032D   26204.80422749  .00002263  00000-0  27954-3 0  9994","l2":"2 40718  97.6535  21.3435 0014660 168.2561 191.8998 14.83690345594771"},{"id":"40719","name":"DEORBITSAIL","type":"PAYLOAD","l1":"1 40719U 15032E   26204.48099494  .00008379  00000-0  60411-3 0  9995","l2":"2 40719  97.5873  60.6266 0014051 109.9935 250.2806 15.04317633596708"},{"id":"40908","name":"LILACSAT 2","type":"PAYLOAD","l1":"1 40908U 15049K   26204.89320387  .00021214  00000-0  34572-3 0  9998","l2":"2 40908  97.4631 243.1525 0008639 116.2559 243.9583 15.52609279601445"},{"id":"40920","name":"COSMOS 2507","type":"PAYLOAD","l1":"1 40920U 15050A   26204.85718535 -.00000022  00000-0 -22633-3 0  9997","l2":"2 40920  82.4905  56.8340 0008876 271.9081  88.0982 12.42927395491416"},{"id":"40921","name":"COSMOS 2508","type":"PAYLOAD","l1":"1 40921U 15050B   26204.89304263 -.00000065  00000-0 -53906-3 0  9995","l2":"2 40921  82.4858  55.3026 0013596 306.9009  53.0824 12.42914973491407"},{"id":"40922","name":"COSMOS 2509","type":"PAYLOAD","l1":"1 40922U 15050C   26204.83378243 -.00000079  00000-0 -63914-3 0  9994","l2":"2 40922  82.4866  55.4458 0014222 325.0062  35.0082 12.42884386491438"}]}